[{"OBJECT_NAME":"DUPLEX","OBJECT_ID":"1998-067XS","EPOCH":"2026-03-16T03:14:39.992640","MEAN_MOTION":15.56663362,"ECCENTRICITY":0.00028117,"INCLINATION":51.6293,"RA_OF_ASC_NODE":37.1993,"ARG_OF_PERICENTER":140.2685,"MEAN_ANOMALY":219.8513,"EPHEMERIS_TYPE":0,"CLASSIFICATION_TYPE":"U","NORAD_CAT_ID":66906,"ELEMENT_SET_NO":999,"REV_AT_EPOCH":1613,"BSTAR":0.00038599321,"MEAN_MOTION_DOT":0.00027658,"MEAN_MOTION_DDOT":0},{"OBJECT_NAME":"ISS OBJECT XT","OBJECT_ID":"1998-067XT","EPOCH":"2026-03-16T21:36:37.081152","MEAN_MOTION":15.71760145,"ECCENTRICITY":0.0004857,"INCLINATION":51.6248,"RA_OF_ASC_NODE":28.7869,"ARG_OF_PERICENTER":127.6513,"MEAN_ANOMALY":232.4926,"EPHEMERIS_TYPE":0,"CLASSIFICATION_TYPE":"U","NORAD_CAT_ID":66907,"ELEMENT_SET_NO":999,"REV_AT_EPOCH":1631,"BSTAR":0.0011449,"MEAN_MOTION_DOT":0.00153665,"MEAN_MOTION_DDOT":0},{"OBJECT_NAME":"ISS OBJECT XU","OBJECT_ID":"1998-067XU","EPOCH":"2026-03-16T21:33:08.156448","MEAN_MOTION":15.71905956,"ECCENTRICITY":0.000516,"INCLINATION":51.6246,"RA_OF_ASC_NODE":28.7673,"ARG_OF_PERICENTER":128.8634,"MEAN_ANOMALY":231.2825,"EPHEMERIS_TYPE":0,"CLASSIFICATION_TYPE":"U","NORAD_CAT_ID":66908,"ELEMENT_SET_NO":999,"REV_AT_EPOCH":1631,"BSTAR":0.0011587,"MEAN_MOTION_DOT":0.00156547,"MEAN_MOTION_DDOT":0},{"OBJECT_NAME":"SILVERSAT","OBJECT_ID":"1998-067XV","EPOCH":"2026-03-16T21:13:40.474272","MEAN_MOTION":15.75488224,"ECCENTRICITY":0.0005556,"INCLINATION":51.6233,"RA_OF_ASC_NODE":27.9241,"ARG_OF_PERICENTER":128.9554,"MEAN_ANOMALY":231.1941,"EPHEMERIS_TYPE":0,"CLASSIFICATION_TYPE":"U","NORAD_CAT_ID":66909,"ELEMENT_SET_NO":999,"REV_AT_EPOCH":1632,"BSTAR":0.0013,"MEAN_MOTION_DOT":0.00206281,"MEAN_MOTION_DDOT":0},{"OBJECT_NAME":"ISS OBJECT XW","OBJECT_ID":"1998-067XW","EPOCH":"2026-03-16T21:34:22.102752","MEAN_MOTION":15.70856846,"ECCENTRICITY":0.0005458,"INCLINATION":51.6239,"RA_OF_ASC_NODE":28.7698,"ARG_OF_PERICENTER":130.1811,"MEAN_ANOMALY":229.9665,"EPHEMERIS_TYPE":0,"CLASSIFICATION_TYPE":"U","NORAD_CAT_ID":66910,"ELEMENT_SET_NO":999,"REV_AT_EPOCH":1631,"BSTAR":0.0010486,"MEAN_MOTION_DOT":0.0013514,"MEAN_MOTION_DDOT":0},{"OBJECT_NAME":"ISS OBJECT XX","OBJECT_ID":"1998-067XX","EPOCH":"2026-03-16T20:45:39.588192","MEAN_MOTION":15.79589243,"ECCENTRICITY":0.0007024,"INCLINATION":51.6212,"RA_OF_ASC_NODE":27.0197,"ARG_OF_PERICENTER":133.5806,"MEAN_ANOMALY":226.5779,"EPHEMERIS_TYPE":0,"CLASSIFICATION_TYPE":"U","NORAD_CAT_ID":66911,"ELEMENT_SET_NO":999,"REV_AT_EPOCH":1632,"BSTAR":0.0014074,"MEAN_MOTION_DOT":0.00270415,"MEAN_MOTION_DDOT":0},{"OBJECT_NAME":"ISS OBJECT XY","OBJECT_ID":"1998-067XY","EPOCH":"2026-03-16T20:43:51.413664","MEAN_MOTION":15.65148353,"ECCENTRICITY":0.0003553,"INCLINATION":51.6275,"RA_OF_ASC_NODE":30.808,"ARG_OF_PERICENTER":131.7631,"MEAN_ANOMALY":228.3668,"EPHEMERIS_TYPE":0,"CLASSIFICATION_TYPE":"U","NORAD_CAT_ID":66912,"ELEMENT_SET_NO":999,"REV_AT_EPOCH":1627,"BSTAR":0.00083336,"MEAN_MOTION_DOT":0.00084324,"MEAN_MOTION_DDOT":0},{"OBJECT_NAME":"KNACKSAT-2","OBJECT_ID":"1998-067XZ","EPOCH":"2026-03-16T20:58:56.810496","MEAN_MOTION":15.52449254,"ECCENTRICITY":0.0009623,"INCLINATION":51.6315,"RA_OF_ASC_NODE":36.1333,"ARG_OF_PERICENTER":211.2162,"MEAN_ANOMALY":148.8257,"EPHEMERIS_TYPE":0,"CLASSIFICATION_TYPE":"U","NORAD_CAT_ID":67683,"ELEMENT_SET_NO":999,"REV_AT_EPOCH":590,"BSTAR":0.00055137,"MEAN_MOTION_DOT":0.00034077,"MEAN_MOTION_DDOT":0},{"OBJECT_NAME":"GXIBA-1","OBJECT_ID":"1998-067YA","EPOCH":"2026-03-16T21:33:32.321664","MEAN_MOTION":15.55558911,"ECCENTRICITY":0.0011629,"INCLINATION":51.6305,"RA_OF_ASC_NODE":35.5444,"ARG_OF_PERICENTER":201.5338,"MEAN_ANOMALY":158.5165,"EPHEMERIS_TYPE":0,"CLASSIFICATION_TYPE":"U","NORAD_CAT_ID":67684,"ELEMENT_SET_NO":999,"REV_AT_EPOCH":591,"BSTAR":0.0010013,"MEAN_MOTION_DOT":0.00070171,"MEAN_MOTION_DDOT":0},{"OBJECT_NAME":"CORAL","OBJECT_ID":"1998-067YB","EPOCH":"2026-03-16T14:39:13.711104","MEAN_MOTION":15.52855241,"ECCENTRICITY":0.0011531,"INCLINATION":51.6321,"RA_OF_ASC_NODE":37.3725,"ARG_OF_PERICENTER":206.9164,"MEAN_ANOMALY":153.1229,"EPHEMERIS_TYPE":0,"CLASSIFICATION_TYPE":"U","NORAD_CAT_ID":67685,"ELEMENT_SET_NO":999,"REV_AT_EPOCH":586,"BSTAR":0.0005914,"MEAN_MOTION_DOT":0.00037176,"MEAN_MOTION_DDOT":0},{"OBJECT_NAME":"ISS OBJECT YC","OBJECT_ID":"1998-067YC","EPOCH":"2026-03-16T20:37:52.222944","MEAN_MOTION":15.535628,"ECCENTRICITY":0.000841,"INCLINATION":51.6315,"RA_OF_ASC_NODE":36.0383,"ARG_OF_PERICENTER":176.636,"MEAN_ANOMALY":183.4689,"EPHEMERIS_TYPE":0,"CLASSIFICATION_TYPE":"U","NORAD_CAT_ID":67686,"ELEMENT_SET_NO":999,"REV_AT_EPOCH":590,"BSTAR":0.00070794,"MEAN_MOTION_DOT":0.00045755,"MEAN_MOTION_DDOT":0},{"OBJECT_NAME":"LEOPARD","OBJECT_ID":"1998-067YD","EPOCH":"2026-03-16T20:54:18.247392","MEAN_MOTION":15.52649439,"ECCENTRICITY":0.0008159,"INCLINATION":51.6319,"RA_OF_ASC_NODE":36.1138,"ARG_OF_PERICENTER":180.5366,"MEAN_ANOMALY":179.5616,"EPHEMERIS_TYPE":0,"CLASSIFICATION_TYPE":"U","NORAD_CAT_ID":67687,"ELEMENT_SET_NO":999,"REV_AT_EPOCH":582,"BSTAR":0.00055973,"MEAN_MOTION_DOT":0.00034839,"MEAN_MOTION_DDOT":0},{"OBJECT_NAME":"ISS OBJECT YE","OBJECT_ID":"1998-067YE","EPOCH":"2026-03-16T03:44:12.938784","MEAN_MOTION":15.53188752,"ECCENTRICITY":0.00082569,"INCLINATION":51.6318,"RA_OF_ASC_NODE":39.587,"ARG_OF_PERICENTER":175.0661,"MEAN_ANOMALY":185.0412,"EPHEMERIS_TYPE":0,"CLASSIFICATION_TYPE":"U","NORAD_CAT_ID":67688,"ELEMENT_SET_NO":999,"REV_AT_EPOCH":571,"BSTAR":0.00075838472,"MEAN_MOTION_DOT":0.00048397,"MEAN_MOTION_DDOT":0},{"OBJECT_NAME":"CREW DRAGON 12","OBJECT_ID":"2026-031A","EPOCH":"2026-03-16T20:53:40.640928","MEAN_MOTION":15.48321468,"ECCENTRICITY":0.0006342,"INCLINATION":51.6334,"RA_OF_ASC_NODE":36.8567,"ARG_OF_PERICENTER":198.5376,"MEAN_ANOMALY":161.5382,"EPHEMERIS_TYPE":0,"CLASSIFICATION_TYPE":"U","NORAD_CAT_ID":67796,"ELEMENT_SET_NO":999,"REV_AT_EPOCH":55736,"BSTAR":0.00017131,"MEAN_MOTION_DOT":8.783e-5,"MEAN_MOTION_DDOT":0}]
