{"fetched_at": "2026-03-17T06:20:33.692455+00:00", "count": 375, "satellites": [ {"name": "DUPLEX", "tle1": "1 66906U 98067XS  26075.13518510  .00027658  00000+0  38599-3 0  9995", "tle2": "2 66906  51.6293  37.1993 0002811 140.2685 219.8513 15.56663362 16138", "norad_id": 66906, "group": "stations", "highlight": false}, {"name": "ISS OBJECT XT", "tle1": "1 66907U 98067XT  26075.90042918  .00153665  00000+0  11449-2 0  9997", "tle2": "2 66907  51.6248  28.7869 0004857 127.6513 232.4926 15.71760145 16311", "norad_id": 66907, "group": "stations", "highlight": true}, {"name": "ISS OBJECT XU", "tle1": "1 66908U 98067XU  26075.89801107  .00156547  00000+0  11587-2 0  9994", "tle2": "2 66908  51.6246  28.7673 0005160 128.8634 231.2825 15.71905956 16314", "norad_id": 66908, "group": "stations", "highlight": true}, {"name": "SILVERSAT", "tle1": "1 66909U 98067XV  26075.88449623  .00206281  00000+0  13000-2 0  9998", "tle2": "2 66909  51.6233  27.9241 0005556 128.9554 231.1941 15.75488224 16321", "norad_id": 66909, "group": "stations", "highlight": false}, {"name": "ISS OBJECT XW", "tle1": "1 66910U 98067XW  26075.89886693  .00135140  00000+0  10486-2 0  9993", "tle2": "2 66910  51.6239  28.7698 0005458 130.1811 229.9665 15.70856846 16317", "norad_id": 66910, "group": "stations", "highlight": true}, {"name": "ISS OBJECT XX", "tle1": "1 66911U 98067XX  26075.86504153  .00270415  00000+0  14074-2 0  9991", "tle2": "2 66911  51.6212  27.0197 0007024 133.5806 226.5779 15.79589243 16320", "norad_id": 66911, "group": "stations", "highlight": true}, {"name": "ISS OBJECT XY", "tle1": "1 66912U 98067XY  26075.86378951  .00084324  00000+0  83336-3 0  9997", "tle2": "2 66912  51.6275  30.8080 0003553 131.7631 228.3668 15.65148353 16271", "norad_id": 66912, "group": "stations", "highlight": true}, {"name": "KNACKSAT-2", "tle1": "1 67683U 98067XZ  26075.87426864  .00034077  00000+0  55137-3 0  9999", "tle2": "2 67683  51.6315  36.1333 0009623 211.2162 148.8257 15.52449254  5907", "norad_id": 67683, "group": "stations", "highlight": false}, {"name": "GXIBA-1", "tle1": "1 67684U 98067YA  26075.89829076  .00070171  00000+0  10013-2 0  9992", "tle2": "2 67684  51.6305  35.5444 0011629 201.5338 158.5165 15.55558911  5910", "norad_id": 67684, "group": "stations", "highlight": false}, {"name": "CORAL", "tle1": "1 67685U 98067YB  26075.61057536  .00037176  00000+0  59140-3 0  9990", "tle2": "2 67685  51.6321  37.3725 0011531 206.9164 153.1229 15.52855241  5868", "norad_id": 67685, "group": "stations", "highlight": false}, {"name": "ISS OBJECT YC", "tle1": "1 67686U 98067YC  26075.85963221  .00045755  00000+0  70794-3 0  9994", "tle2": "2 67686  51.6315  36.0383 0008410 176.6360 183.4689 15.53562800  5909", "norad_id": 67686, "group": "stations", "highlight": true}, {"name": "LEOPARD", "tle1": "1 67687U 98067YD  26075.87104453  .00034839  00000+0  55973-3 0  9994", "tle2": "2 67687  51.6319  36.1138 0008159 180.5366 179.5616 15.52649439  5823", "norad_id": 67687, "group": "stations", "highlight": false}, {"name": "ISS OBJECT YE", "tle1": "1 67688U 98067YE  26075.15570531  .00048397  00000+0  75838-3 0  9996", "tle2": "2 67688  51.6318  39.5870 0008256 175.0661 185.0412 15.53188752  5719", "norad_id": 67688, "group": "stations", "highlight": true}, {"name": "CREW DRAGON 12", "tle1": "1 67796U 26031A   26075.87060927  .00008783  00000+0  17131-3 0  9997", "tle2": "2 67796  51.6334  36.8567 0006342 198.5376 161.5382 15.48321468557362", "norad_id": 67796, "group": "stations", "highlight": false}]}